METHANESAT              
1 59101U 24043D   25312.07542666  .00005101  00000+0  45443-3 0  9997
2 59101  97.8188  77.6819 0011072  33.2140 326.9773 14.96429714 91566
GOSAT-GW (IBUKI GW)     
1 64694U 25141A   25312.14650765  .00001498  00000+0  27223-3 0  9999
2 64694  98.0366 248.2952 0001383  84.8693 275.2669 14.67577875 19428
GHGSAT-C1               
1 46278U 20061G   25312.21518221  .00030847  00000+0  43255-3 0  9994
2 46278  97.2356  27.3148 0002969 122.9788 237.1753 15.56703208288945
GHGSAT-C12              
1 64529U 25135B   25312.03026257  .00005976  00000+0  29523-3 0  9990
2 64529  97.4603  64.3774 0004433 209.7153 150.3830 15.18227410 21249
GHGSAT-C13              
1 64548U 25135W   25312.07475569  .00005784  00000+0  27915-3 0  9999
2 64548  97.4629  64.6642 0002198 126.5060 233.6378 15.19061229 21263
GHGSAT-C2               
1 47509U 21006DA  25312.08036616  .00009851  00000+0  29770-3 0  9997
2 47509  97.2491 358.1611 0004093 230.6347 129.4534 15.34422443265907
GHGSAT-C3               
1 52737U 22057F   25312.10719958  .00010920  00000+0  37128-3 0  9998
2 52737  97.6324  85.5150 0006716 175.1501 184.9806 15.30615347191676
GHGSAT-C4               
1 52746U 22057Q   25312.12606700  .00011266  00000+0  38300-3 0  9997
2 52746  97.6252  84.5872 0007220 162.0155 198.1342 15.30608620191686
GHGSAT-C5               
1 52744U 22057N   25312.14305047  .00011010  00000+0  37448-3 0  9996
2 52744  97.6412  86.8684 0007749 172.8319 187.3033 15.30596701191688
GHGSAT-C6               
1 56204U 23054AC  25312.12408362  .00017960  00000+0  37490-3 0  9998
2 56204  97.3169 214.0314 0010575 118.5704 241.6610 15.45527444144227
GHGSAT-C7               
1 56209U 23054AH  25312.20699495  .00015927  00000+0  34808-3 0  9992
2 56209  97.3128 213.4405 0010559 113.3552 246.8808 15.44199295144221
GHGSAT-C8               
1 56186U 23054J   25312.22714144  .00018447  00000+0  38496-3 0  9994
2 56186  97.3133 213.5772 0007638 130.5389 229.6526 15.45558726144227
SENTINEL-5P             
1 42969U 17064A   25312.08751016  .00000146  00000+0  90252-4 0  9991
2 42969  98.7728 250.9887 0001041  78.1508 281.9784 14.19503492418197
ENMAP                   
1 52159U 22033C   25312.21338712  .00000928  00000+0  14548-3 0  9995
2 52159  97.9795  32.6261 0000984  94.0659 266.0663 14.74981528194084
PRISMA                  
1 44072U 19015A   25312.20142775  .00001566  00000+0  19612-3 0  9993
2 44072  97.8735  25.1503 0001388  95.9367 264.2005 14.83647094359285
SENTINEL-2A             
1 40697U 15028A   25312.16573652  .00000270  00000+0  11979-3 0  9998
2 40697  98.5728  25.1862 0001084  94.0903 266.0404 14.30822066542127
SENTINEL-2B             
1 42063U 17013A   25312.15850816  .00000352  00000+0  15102-3 0  9995
2 42063  98.5661  25.1031 0001018 100.1991 259.9307 14.30813645453030
SENTINEL-2C             
1 60989U 24157A   25312.19366133  .00000249  00000+0  11161-3 0  9993
2 60989  98.5638  25.1919 0000946 102.7574 257.3715 14.30822922 61386
LANDSAT 8               
1 39084U 13008A   25312.18429042  .00000660  00000+0  15658-3 0  9998
2 39084  98.2110  20.7604 0001206  88.3658 271.7679 14.57117758665713
LANDSAT 9               
1 49260U 21088A   25312.15001609  .00000709  00000+0  16748-3 0  9999
2 49260  98.2133  20.7551 0001216  82.9031 277.2306 14.57105047218813
